[
    {
        "Altitude(m)": 604234.5887816793,
        "Argument of Periapsis(deg)": 0.0,
        "Eccentricity": 0.0,
        "Inclination(deg)": 60.0,
        "Latitude(deg)": 14.117119155070982,
        "Longitude(deg)": -88.27266829073598,
        "Mean Anomaly(deg)": -196.36360000000002,
        "RAAN(deg)": 200.0,
        "Satellite Name": "Test1 890",
        "Satellite Number": 890,
        "Semi-Major Axis(m)": 6980739.136638005,
        "Time(s)": 0
    },
    {
        "Altitude(m)": 604223.4180507234,
        "Argument of Periapsis(deg)": 0.00010418945913296404,
        "Eccentricity": 0.0,
        "Inclination(deg)": 60.0,
        "Latitude(deg)": 13.582255430850477,
        "Longitude(deg)": -87.98575942646399,
        "Mean Anomaly(deg)": -195.74349385453817,
        "RAAN(deg)": 199.99957995086027,
        "Satellite Name": "Test1 890",
        "Satellite Number": 890,
        "Semi-Major Axis(m)": 6980739.136638005,
        "Time(s)": 10
    },
    {
        "Altitude(m)": 604215.2025920126,
        "Argument of Periapsis(deg)": 0.0002083789182659281,
        "Eccentricity": 0.0,
        "Inclination(deg)": 60.0,
        "Latitude(deg)": 13.046943572816483,
        "Longitude(deg)": -87.70032106152136,
        "Mean Anomaly(deg)": -195.12338770907633,
        "RAAN(deg)": 199.9991599017205,
        "Satellite Name": "Test1 890",
        "Satellite Number": 890,
        "Semi-Major Axis(m)": 6980739.136638005,
        "Time(s)": 20
    },
    {
        "Altitude(m)": 604209.970297285,
        "Argument of Periapsis(deg)": 0.00031256837739889213,
        "Eccentricity": 0.0,
        "Inclination(deg)": 60.0,
        "Latitude(deg)": 12.511203969584638,
        "Longitude(deg)": -87.41628848268692,
        "Mean Anomaly(deg)": -194.50328156361448,
        "RAAN(deg)": 199.99873985258077,
        "Satellite Name": "Test1 890",
        "Satellite Number": 890,
        "Semi-Major Axis(m)": 6980739.136638005,
        "Time(s)": 30
    },
    {
        "Altitude(m)": 604207.7477142098,
        "Argument of Periapsis(deg)": 0.0004167578365318562,
        "Eccentricity": 0.0,
        "Inclination(deg)": 60.0,
        "Latitude(deg)": 11.975056733816924,
        "Longitude(deg)": -87.13359732210914,
        "Mean Anomaly(deg)": -193.88317541815266,
        "RAAN(deg)": 199.99831980344103,
        "Satellite Name": "Test1 890",
        "Satellite Number": 890,
        "Semi-Major Axis(m)": 6980739.136638005,
        "Time(s)": 40
    },
    {
        "Altitude(m)": 604208.5600306396,
        "Argument of Periapsis(deg)": 0.0005209472956648203,
        "Eccentricity": 0.0,
        "Inclination(deg)": 60.0,
        "Latitude(deg)": 11.43852171616902,
        "Longitude(deg)": -86.85218452558917,
        "Mean Anomaly(deg)": -193.26306927269079,
        "RAAN(deg)": 199.9978997543013,
        "Satellite Name": "Test1 890",
        "Satellite Number": 890,
        "Semi-Major Axis(m)": 6980739.136638005,
        "Time(s)": 50
    },
    {
        "Altitude(m)": 604212.4310594517,
        "Argument of Periapsis(deg)": 0.0006251367547977843,
        "Eccentricity": 0.0,
        "Inclination(deg)": 60.0,
        "Latitude(deg)": 10.901618518881154,
        "Longitude(deg)": -86.57198780867944,
        "Mean Anomaly(deg)": -192.64296312722897,
        "RAAN(deg)": 199.99747970516154,
        "Satellite Name": "Test1 890",
        "Satellite Number": 890,
        "Semi-Major Axis(m)": 6980739.136638005,
        "Time(s)": 60
    },
    {
        "Altitude(m)": 604219.3832240816,
        "Argument of Periapsis(deg)": 0.0007293262139307483,
        "Eccentricity": 0.0,
        "Inclination(deg)": 60.0,
        "Latitude(deg)": 10.364366509031047,
        "Longitude(deg)": -86.29294511344058,
        "Mean Anomaly(deg)": -192.02285698176718,
        "RAAN(deg)": 199.9970596560218,
        "Satellite Name": "Test1 890",
        "Satellite Number": 890,
        "Semi-Major Axis(m)": 6980739.136638005,
        "Time(s)": 70
    },
    {
        "Altitude(m)": 604229.4375447349,
        "Argument of Periapsis(deg)": 0.0008335156730637124,
        "Eccentricity": 0.0,
        "Inclination(deg)": 60.0,
        "Latitude(deg)": 9.826784831467856,
        "Longitude(deg)": -86.01499557870035,
        "Mean Anomaly(deg)": -191.40275083630533,
        "RAAN(deg)": 199.99663960688207,
        "Satellite Name": "Test1 890",
        "Satellite Number": 890,
        "Semi-Major Axis(m)": 6980739.136638005,
        "Time(s)": 80
    },
    {
        "Altitude(m)": 604242.6136252626,
        "Argument of Periapsis(deg)": 0.0009377051321966765,
        "Eccentricity": 0.0,
        "Inclination(deg)": 60.0,
        "Latitude(deg)": 9.288892421445182,
        "Longitude(deg)": -85.73807899803985,
        "Mean Anomaly(deg)": -190.7826446908435,
        "RAAN(deg)": 199.99621955774234,
        "Satellite Name": "Test1 890",
        "Satellite Number": 890,
        "Semi-Major Axis(m)": 6980739.136638005,
        "Time(s)": 90
    },
    {
        "Altitude(m)": 604258.9296407283,
        "Argument of Periapsis(deg)": 0.0010418945913296407,
        "Eccentricity": 0.0,
        "Inclination(deg)": 60.0,
        "Latitude(deg)": 8.750708016969933,
        "Longitude(deg)": -85.46213527834904,
        "Mean Anomaly(deg)": -190.16253854538172,
        "RAAN(deg)": 199.99579950860257,
        "Satellite Name": "Test1 890",
        "Satellite Number": 890,
        "Semi-Major Axis(m)": 6980739.136638005,
        "Time(s)": 100
    },
    {
        "Altitude(m)": 604278.4023256812,
        "Argument of Periapsis(deg)": 0.0011460840504626045,
        "Eccentricity": 0.0,
        "Inclination(deg)": 60.0,
        "Latitude(deg)": 8.212250170885875,
        "Longitude(deg)": -85.18710541179635,
        "Mean Anomaly(deg)": -189.54243239991987,
        "RAAN(deg)": 199.99537945946284,
        "Satellite Name": "Test1 890",
        "Satellite Number": 890,
        "Semi-Major Axis(m)": 6980739.136638005,
        "Time(s)": 110
    },
    {
        "Altitude(m)": 604301.0469631128,
        "Argument of Periapsis(deg)": 0.0012502735095955685,
        "Eccentricity": 0.0,
        "Inclination(deg)": 60.0,
        "Latitude(deg)": 7.6735372627065175,
        "Longitude(deg)": -84.91293093543553,
        "Mean Anomaly(deg)": -188.92232625445803,
        "RAAN(deg)": 199.9949594103231,
        "Satellite Name": "Test1 890",
        "Satellite Number": 890,
        "Semi-Major Axis(m)": 6980739.136638005,
        "Time(s)": 120
    },
    {
        "Altitude(m)": 604326.877374128,
        "Argument of Periapsis(deg)": 0.0013544629687285324,
        "Eccentricity": 0.0,
        "Inclination(deg)": 60.0,
        "Latitude(deg)": 7.134587510215343,
        "Longitude(deg)": -84.63955339129343,
        "Mean Anomaly(deg)": -188.30222010899618,
        "RAAN(deg)": 199.9945393611833,
        "Satellite Name": "Test1 890",
        "Satellite Number": 890,
        "Semi-Major Axis(m)": 6980739.136638005,
        "Time(s)": 130
    },
    {
        "Altitude(m)": 604355.9059083455,
        "Argument of Periapsis(deg)": 0.0014586524278614966,
        "Eccentricity": 0.0,
        "Inclination(deg)": 60.0,
        "Latitude(deg)": 6.595418980848809,
        "Longitude(deg)": -84.36691529978222,
        "Mean Anomaly(deg)": -187.68211396353433,
        "RAAN(deg)": 199.9941193120436,
        "Satellite Name": "Test1 890",
        "Satellite Number": 890,
        "Semi-Major Axis(m)": 6980739.136638005,
        "Time(s)": 140
    },
    {
        "Altitude(m)": 604388.143434979,
        "Argument of Periapsis(deg)": 0.0015628418869944607,
        "Eccentricity": 0.0,
        "Inclination(deg)": 60.0,
        "Latitude(deg)": 6.05604960287744,
        "Longitude(deg)": -84.09495962065992,
        "Mean Anomaly(deg)": -187.0620078180725,
        "RAAN(deg)": 199.99369926290387,
        "Satellite Name": "Test1 890",
        "Satellite Number": 890,
        "Semi-Major Axis(m)": 6980739.136638005,
        "Time(s)": 150
    },
    {
        "Altitude(m)": 604423.5993346976,
        "Argument of Periapsis(deg)": 0.0016670313461274247,
        "Eccentricity": 0.0,
        "Inclination(deg)": 60.0,
        "Latitude(deg)": 5.516497176401249,
        "Longitude(deg)": -83.8236292143832,
        "Mean Anomaly(deg)": -186.4419016726107,
        "RAAN(deg)": 199.9932792137641,
        "Satellite Name": "Test1 890",
        "Satellite Number": 890,
        "Semi-Major Axis(m)": 6980739.136638005,
        "Time(s)": 160
    },
    {
        "Altitude(m)": 604462.2814921528,
        "Argument of Periapsis(deg)": 0.0017712208052603888,
        "Eccentricity": 0.0,
        "Inclination(deg)": 60.0,
        "Latitude(deg)": 4.9767793841733665,
        "Longitude(deg)": -83.55286781669534,
        "Mean Anomaly(deg)": -185.82179552714888,
        "RAAN(deg)": 199.99285916462435,
        "Satellite Name": "Test1 890",
        "Satellite Number": 890,
        "Semi-Major Axis(m)": 6980739.136638005,
        "Time(s)": 170
    },
    {
        "Altitude(m)": 604504.1962892872,
        "Argument of Periapsis(deg)": 0.001875410264393353,
        "Eccentricity": 0.0,
        "Inclination(deg)": 60.0,
        "Latitude(deg)": 4.436913802267856,
        "Longitude(deg)": -83.2826195006744,
        "Mean Anomaly(deg)": -185.20168938168703,
        "RAAN(deg)": 199.99243911548464,
        "Satellite Name": "Test1 890",
        "Satellite Number": 890,
        "Semi-Major Axis(m)": 6980739.136638005,
        "Time(s)": 180
    },
    {
        "Altitude(m)": 604549.348599363,
        "Argument of Periapsis(deg)": 0.0019795997235263173,
        "Eccentricity": 0.0,
        "Inclination(deg)": 60.0,
        "Latitude(deg)": 3.896917910605576,
        "Longitude(deg)": -83.01282813908499,
        "Mean Anomaly(deg)": -184.58158323622524,
        "RAAN(deg)": 199.9920190663449,
        "Satellite Name": "Test1 890",
        "Satellite Number": 890,
        "Semi-Major Axis(m)": 6980739.136638005,
        "Time(s)": 190
    }
]